#aV2012  4 16  0  0  0.00000000     288 DD+AD WGS84 FIT  NGA
## 1684  86400.00000000   300.00000000 56033 0.0000000000000
+   31     1  2  3  4  5  6  7  8  9 10 11 12 13 14 15 16 17
+         18 19 20 21 22 23 25 26 27 28 29 30 31 32  0  0  0
+          0  0  0  0  0  0  0  0  0  0  0  0  0  0  0  0  0
+          0  0  0  0  0  0  0  0  0  0  0  0  0  0  0  0  0
+          0  0  0  0  0  0  0  0  0  0  0  0  0  0  0  0  0
++         2  2  2  2  2  2  2  2  2  2  2  2  2  2  2  2  2
++         2  2  2  2  2  2  2  2  2  2  2  2  2  2  2  0  0
++         0  0  0  0  0  0  0  0  0  0  0  0  0  0  0  0  0
++         0  0  0  0  0  0  0  0  0  0  0  0  0  0  0  0  0
++         0  0  0  0  0  0  0  0  0  0  0  0  0  0  0  0  0
%c cc cc ccc ccc cccc cccc cccc cccc ccccc ccccc ccccc ccccc
%c cc cc ccc ccc cccc cccc cccc cccc ccccc ccccc ccccc ccccc
%f  0.0000000  0.000000000  0.00000000000  0.000000000000000
%f  0.0000000  0.000000000  0.00000000000  0.000000000000000
%i    0    0    0    0      0      0      0      0         0
%i    0    0    0    0      0      0      0      0         0
/*      NGA, ST. LOUIS,MO.                                  
/*   EPHEMERIS COMPUTED FROM  1 DAYS OF DATA
/*   EPOCHA SMOOTHER  
/* CCCCCCCCCCCCCCCCCCCCCCCCCCCCCCCCCCCCCCCCCCCCCCCCCCCCCCCCC
*  2012  4 16  2  5  0.00000000                                                 
P  1  13815.526774 -22651.818430    840.955105    248.459494                    
V  1   1929.601748   2366.339723  31739.295790      0.043698                    
P  2 -18059.306545   4144.662782 -18723.633749    386.820302                    
V  2  10180.846364 -22121.882049 -15129.073600      0.014031                    
P  3  18820.911616   2284.111703  18244.664211     36.486892                    
V  3  13144.907972  20321.898755 -15431.723625      0.049104                    
P  4 -13821.075902  -7711.650275 -21576.605345    154.703500                    
V  4  13690.048094 -23167.117795   -175.524831      0.114113                    
P  5 -26390.053114   1967.817485   2933.351588   -305.381608                    
V  5  -3731.007960  -2999.876056 -31176.901899     -0.040576                    
P  6  19415.244889   7038.679318  16989.875896     30.551306                    
V  6   9914.536785  18937.758854 -19029.437343     -0.011571                    
P  7   4389.018065 -23091.072012  12137.991288     72.997096                    
V  7   9824.945619 -12112.557313 -26879.372932      0.031972                    
P  8  -5355.108507 -15485.358910  20819.415231      1.033723                    
V  8  16151.412425 -20844.604651 -11937.587272      0.000275                    
P  9 -15305.584316  21200.873275   4188.338344    151.776422                    
V  9   1180.717542  -6236.626457  31672.400829      0.026233                    
P 10 -20739.144999 -10336.782630 -13579.747909    -35.534491                    
V 10  16764.096037  -1764.429511 -24324.670409     -0.011347                    
P 11  13048.049559 -20994.685590   8909.544228   -251.956007                    
V 11   1653.874684  12930.306834  27235.929016     -0.038388                    
P 12 -17286.997686  10840.073968 -16893.563662     63.736810                    
V 12 -21433.209255  -2182.300405  20716.132504      0.020967                    
P 13  -3981.708381 -24391.741099  -9749.674334    213.186572                    
V 13   6711.590223  10314.710199 -29065.831562     -0.023041                    
P 14  15244.571353  20636.124534  -6970.053038    200.233564                    
V 14   2103.269732   9022.590736  30408.491819      0.010705                    
P 15  -9213.164588  13741.935529  20728.738152    -91.408581                    
V 15 -14417.515066 -22184.630813   8504.915454      0.001037                    
P 16  26598.565593   -510.786237   2653.736297   -231.500569                    
V 16   3224.806607   2075.704944 -31736.021938     -0.014224                    
P 17 -14887.346553 -21644.220555  -4528.948562    135.524008                    
V 17   -503.795722  -6430.678135  30945.110658     -0.027236                    
P 18   5088.720661  15825.238594  21120.267991    191.193962                    
V 18 -26081.415553    115.721904   5936.140088      0.018054                    
P 19  11937.736972  -9998.030232  21436.324686   -255.989857                    
V 19  11954.510039  24622.212083   5197.519589     -0.037321                    
P 20  12185.777796 -14460.979378 -18786.913022     63.215674                    
V 20  23702.141244    900.614715  14874.796149      0.000124                    
P 21    715.414356  21532.683753  15623.374994   -217.558497                    
V 21 -12271.872774  15169.226238 -21587.446076     -0.024838                    
P 22  19715.515444  11042.217054  14231.628455    143.352967                    
V 22 -17863.656033   2391.504582  23057.745010      0.002345                    
P 23   3892.639034 -18978.398223 -17971.240909    214.377725                    
V 23  12698.702642  19287.207857 -17950.094934     -0.036097                    
P 25  -2122.719137  15023.563812 -21825.250820     33.037165                    
V 25 -27625.033640   -128.270310   2659.674737      0.003247                    
P 26 -16105.707598  -2421.135651  20448.008326   -308.528690                    
V 26 -10809.640142 -25008.038838 -10779.061353     -0.533150                    
P 27 -17592.043597  16030.814914  11882.791553    377.868863                    
V 27   4983.696370 -13527.238401  27504.987291      0.040729                    
P 28 -17232.906713 -12241.319189  16770.479039    133.891910                    
V 28  20162.709031    -95.528931  21148.041753      0.040977                    
P 29   2755.256061  23561.874645 -11920.293277    303.752170                    
V 29  -8985.281472 -12503.558048 -26593.016508      0.036457                    
P 30  25056.604758   3557.232323  -8425.119163   -133.079869                    
V 30  -9925.948055   3516.823206 -29267.344139     -0.188525                    
P 31  13333.397129   6295.275825 -21907.891964    231.644253                    
V 31 -14664.111317  24102.585337  -1745.269268      0.042750                    
P 32  20185.877962  -8464.670171 -14489.934991   -433.163969                    
V 32  18651.969695   4428.399072  23522.447692     -0.044571                    
EOF
